{"type": "FeatureCollection", "features": [ {"type": "Feature", "properties": {"norad_id": 39122, "name": "EUTELSAT 117 WEST A", "group": "eutelsat", "lat": 0.04427412507613867, "lon": 43.3312793286043, "alt_km": 35797.335635708296, "timestamp": "2025-12-05T05:43:14.785612+00:00", "meta": {"OBJECT_NAME": "EUTELSAT 117 WEST A", "OBJECT_ID": "2013-012A", "EPOCH": "2025-12-04T13:10:15.303072", "MEAN_MOTION": 1.00272437, "ECCENTRICITY": 0.0003209, "INCLINATION": 0.0194, "RA_OF_ASC_NODE": 314.6933, "ARG_OF_PERICENTER": 301.181, "MEAN_ANOMALY": 258.5257, "EPHEMERIS_TYPE": 0, "CLASSIFICATION_TYPE": "U", "NORAD_CAT_ID": 39122, "ELEMENT_SET_NO": 999, "REV_AT_EPOCH": 4648, "BSTAR": 0, "MEAN_MOTION_DOT": 1e-08, "MEAN_MOTION_DDOT": 0}, "tle": {"line1": "1 39122U 13012A   25338.54878823  .00000001  00000+0  00000+0 0  9999", "line2": "2 39122   0.0194 314.6933 0003209 301.1810 258.5257  1.00272437 46482"}}, "geometry": {"type": "Point", "coordinates": [43.3312793286043, 0.04427412507613867]}}, {"type": "Feature", "properties": {"norad_id": 39163, "name": "EUTELSAT 7B", "group": "eutelsat", "lat": 0.01202170507684039, "lon": 167.05414807221757, "alt_km": 35801.10554463027, "timestamp": "2025-12-05T05:43:14.785625+00:00", "meta": {"OBJECT_NAME": "EUTELSAT 7B", "OBJECT_ID": "2013-022A", "EPOCH": "2025-12-04T10:18:38.727360", "MEAN_MOTION": 1.00269718, "ECCENTRICITY": 0.0004273, "INCLINATION": 0.0678, "RA_OF_ASC_NODE": 2.7542, "ARG_OF_PERICENTER": 308.3811, "MEAN_ANOMALY": 284.0236, "EPHEMERIS_TYPE": 0, "CLASSIFICATION_TYPE": "U", "NORAD_CAT_ID": 39163, "ELEMENT_SET_NO": 999, "REV_AT_EPOCH": 4600, "BSTAR": 0, "MEAN_MOTION_DOT": 6.3e-07, "MEAN_MOTION_DDOT": 0}, "tle": {"line1": "1 39163U 13022A   25338.42961490  .00000063  00000+0  00000+0 0  9993", "line2": "2 39163   0.0678   2.7542 0004273 308.3811 284.0236  1.00269718 46004"}}, "geometry": {"type": "Point", "coordinates": [167.05414807221757, 0.01202170507684039]}}, {"type": "Feature", "properties": {"norad_id": 39612, "name": "EXPRESS-AT1", "group": "eutelsat", "lat": -0.04077766151039264, "lon": -143.90963691225593, "alt_km": 35786.09697447822, "timestamp": "2025-12-05T05:43:14.785652+00:00", "meta": {"OBJECT_NAME": "EXPRESS-AT1", "OBJECT_ID": "2014-010A", "EPOCH": "2025-12-04T13:59:33.080064", "MEAN_MOTION": 1.00270212, "ECCENTRICITY": 1.36e-05, "INCLINATION": 0.0176, "RA_OF_ASC_NODE": 304.2222, "ARG_OF_PERICENTER": 222.5945, "MEAN_ANOMALY": 172.7241, "EPHEMERIS_TYPE": 0, "CLASSIFICATION_TYPE": "U", "NORAD_CAT_ID": 39612, "ELEMENT_SET_NO": 999, "REV_AT_EPOCH": 4286, "BSTAR": 0, "MEAN_MOTION_DOT": 9.3e-07, "MEAN_MOTION_DDOT": 0}, "tle": {"line1": "1 39612U 14010A   25338.58302176  .00000093  00000+0  00000+0 0  9990", "line2": "2 39612   0.0176 304.2222 0000136 222.5945 172.7241  1.00270212 42860"}}, "geometry": {"type": "Point", "coordinates": [-143.90963691225593, -0.04077766151039264]}}, {"type": "Feature", "properties": {"norad_id": 39613, "name": "EXPRESS-AT2", "group": "eutelsat", "lat": -0.02709216902921008, "lon": -60.05973836242218, "alt_km": 35780.212217898574, "timestamp": "2025-12-05T05:43:14.785665+00:00", "meta": {"OBJECT_NAME": "EXPRESS-AT2", "OBJECT_ID": "2014-010B", "EPOCH": "2025-12-04T16:06:13.447008", "MEAN_MOTION": 1.00270108, "ECCENTRICITY": 0.0001528, "INCLINATION": 0.0202, "RA_OF_ASC_NODE": 341.4557, "ARG_OF_PERICENTER": 312.4947, "MEAN_ANOMALY": 161.1947, "EPHEMERIS_TYPE": 0, "CLASSIFICATION_TYPE": "U", "NORAD_CAT_ID": 39613, "ELEMENT_SET_NO": 999, "REV_AT_EPOCH": 4255, "BSTAR": 0, "MEAN_MOTION_DOT": 0, "MEAN_MOTION_DDOT": 0}, "tle": {"line1": "1 39613U 14010B   25338.67098897  .00000000  00000+0  00000+0 0  9991", "line2": "2 39613   0.0202 341.4557 0001528 312.4947 161.1947  1.00270108 42557"}}, "geometry": {"type": "Point", "coordinates": [-60.05973836242218, -0.02709216902921008]}}, {"type": "Feature", "properties": {"norad_id": 39773, "name": "EUTELSAT 3B", "group": "eutelsat", "lat": 0.019232946420526826, "lon": 163.13675428247336, "alt_km": 35778.143044248514, "timestamp": "2025-12-05T05:43:14.785678+00:00", "meta": {"OBJECT_NAME": "EUTELSAT 3B", "OBJECT_ID": "2014-030A", "EPOCH": "2025-12-04T13:44:27.028320", "MEAN_MOTION": 1.00271062, "ECCENTRICITY": 0.0004772, "INCLINATION": 0.0634, "RA_OF_ASC_NODE": 5.1533, "ARG_OF_PERICENTER": 224.1164, "MEAN_ANOMALY": 53.5813, "EPHEMERIS_TYPE": 0, "CLASSIFICATION_TYPE": "U", "NORAD_CAT_ID": 39773, "ELEMENT_SET_NO": 999, "REV_AT_EPOCH": 4211, "BSTAR": 0, "MEAN_MOTION_DOT": 3.4e-07, "MEAN_MOTION_DDOT": 0}, "tle": {"line1": "1 39773U 14030A   25338.57253505  .00000034  00000+0  00000+0 0  9995", "line2": "2 39773   0.0634   5.1533 0004772 224.1164  53.5813  1.00271062 42113"}}, "geometry": {"type": "Point", "coordinates": [163.13675428247336, 0.019232946420526826]}}, {"type": "Feature", "properties": {"norad_id": 40425, "name": "EUTELSAT 115 WEST B", "group": "eutelsat", "lat": -0.010588172024730665, "lon": 45.22482759453156, "alt_km": 35783.37771643754, "timestamp": "2025-12-05T05:43:14.785689+00:00", "meta": {"OBJECT_NAME": "EUTELSAT 115 WEST B", "OBJECT_ID": "2015-010B", "EPOCH": "2025-12-04T13:10:52.742784", "MEAN_MOTION": 1.00275299, "ECCENTRICITY": 4.04e-05, "INCLINATION": 0.0149, "RA_OF_ASC_NODE": 139.4558, "ARG_OF_PERICENTER": 272.1995, "MEAN_ANOMALY": 104.8079, "EPHEMERIS_TYPE": 0, "CLASSIFICATION_TYPE": "U", "NORAD_CAT_ID": 40425, "ELEMENT_SET_NO": 999, "REV_AT_EPOCH": 3944, "BSTAR": 0, "MEAN_MOTION_DOT": -1.1e-07, "MEAN_MOTION_DDOT": 0}, "tle": {"line1": "1 40425U 15010B   25338.54922156 -.00000011  00000+0  00000+0 0  9998", "line2": "2 40425   0.0149 139.4558 0000404 272.1995 104.8079  1.00275299 39443"}}, "geometry": {"type": "Point", "coordinates": [45.22482759453156, -0.010588172024730665]}}, {"type": "Feature", "properties": {"norad_id": 40875, "name": "EUTELSAT 8 WEST B", "group": "eutelsat", "lat": 0.019173359977139006, "lon": 152.05639988906893, "alt_km": 35790.22999107322, "timestamp": "2025-12-05T05:43:14.785701+00:00", "meta": {"OBJECT_NAME": "EUTELSAT 8 WEST B", "OBJECT_ID": "2015-039B", "EPOCH": "2025-12-04T10:15:43.580736", "MEAN_MOTION": 1.00271635, "ECCENTRICITY": 0.0004127, "INCLINATION": 0.0652, "RA_OF_ASC_NODE": 349.5368, "ARG_OF_PERICENTER": 266.1668, "MEAN_ANOMALY": 323.7381, "EPHEMERIS_TYPE": 0, "CLASSIFICATION_TYPE": "U", "NORAD_CAT_ID": 40875, "ELEMENT_SET_NO": 999, "REV_AT_EPOCH": 3770, "BSTAR": 0, "MEAN_MOTION_DOT": -5e-07, "MEAN_MOTION_DDOT": 0}, "tle": {"line1": "1 40875U 15039B   25338.42758774 -.00000050  00000+0  00000+0 0  9991", "line2": "2 40875   0.0652 349.5368 0004127 266.1668 323.7381  1.00271635 37705"}}, "geometry": {"type": "Point", "coordinates": [152.05639988906893, 0.019173359977139006]}}, {"type": "Feature", "properties": {"norad_id": 41310, "name": "EUTELSAT 9B", "group": "eutelsat", "lat": 0.0542952539266174, "lon": 169.02446739339317, "alt_km": 35788.47915657141, "timestamp": "2025-12-05T05:43:14.785713+00:00", "meta": {"OBJECT_NAME": "EUTELSAT 9B", "OBJECT_ID": "2016-005A", "EPOCH": "2025-12-04T13:46:11.860032", "MEAN_MOTION": 1.00271663, "ECCENTRICITY": 0.0004969, "INCLINATION": 0.0689, "RA_OF_ASC_NODE": 75.4644, "ARG_OF_PERICENTER": 190.3193, "MEAN_ANOMALY": 23.398, "EPHEMERIS_TYPE": 0, "CLASSIFICATION_TYPE": "U", "NORAD_CAT_ID": 41310, "ELEMENT_SET_NO": 999, "REV_AT_EPOCH": 3616, "BSTAR": 0, "MEAN_MOTION_DOT": 7.6e-07, "MEAN_MOTION_DDOT": 0}, "tle": {"line1": "1 41310U 16005A   25338.57374838  .00000076  00000+0  00000+0 0  9998", "line2": "2 41310   0.0689  75.4644 0004969 190.3193  23.3980  1.00271663 36165"}}, "geometry": {"type": "Point", "coordinates": [169.02446739339317, 0.0542952539266174]}}, {"type": "Feature", "properties": {"norad_id": 41382, "name": "EUTELSAT 65 WEST A", "group": "eutelsat", "lat": 0.06904198644565337, "lon": 94.87983418261882, "alt_km": 35798.26094772398, "timestamp": "2025-12-05T05:43:14.785724+00:00", "meta": {"OBJECT_NAME": "EUTELSAT 65 WEST A", "OBJECT_ID": "2016-014A", "EPOCH": "2025-12-04T13:24:58.893408", "MEAN_MOTION": 1.00270224, "ECCENTRICITY": 0.0002832, "INCLINATION": 0.0497, "RA_OF_ASC_NODE": 348.6097, "ARG_OF_PERICENTER": 272.9646, "MEAN_ANOMALY": 308.0993, "EPHEMERIS_TYPE": 0, "CLASSIFICATION_TYPE": "U", "NORAD_CAT_ID": 41382, "ELEMENT_SET_NO": 999, "REV_AT_EPOCH": 3558, "BSTAR": 0, "MEAN_MOTION_DOT": -2.62e-06, "MEAN_MOTION_DDOT": 0}, "tle": {"line1": "1 41382U 16014A   25338.55901497 -.00000262  00000+0  00000+0 0  9990", "line2": "2 41382   0.0497 348.6097 0002832 272.9646 308.0993  1.00270224 35589"}}, "geometry": {"type": "Point", "coordinates": [94.87983418261882, 0.06904198644565337]}}, {"type": "Feature", "properties": {"norad_id": 41589, "name": "EUTELSAT 117 WEST B", "group": "eutelsat", "lat": -0.018130024628424345, "lon": 43.08521618614724, "alt_km": 35785.993454618234, "timestamp": "2025-12-05T05:43:14.785736+00:00", "meta": {"OBJECT_NAME": "EUTELSAT 117 WEST B", "OBJECT_ID": "2016-038B", "EPOCH": "2025-12-04T10:48:15.329952", "MEAN_MOTION": 1.00269296, "ECCENTRICITY": 2.1e-05, "INCLINATION": 0.0071, "RA_OF_ASC_NODE": 152.5773, "ARG_OF_PERICENTER": 282.2107, "MEAN_ANOMALY": 43.7985, "EPHEMERIS_TYPE": 0, "CLASSIFICATION_TYPE": "U", "NORAD_CAT_ID": 41589, "ELEMENT_SET_NO": 999, "REV_AT_EPOCH": 3471, "BSTAR": 0, "MEAN_MOTION_DOT": 4e-08, "MEAN_MOTION_DDOT": 0}, "tle": {"line1": "1 41589U 16038B   25338.45017743  .00000004  00000+0  00000+0 0  9999", "line2": "2 41589   0.0071 152.5773 0000210 282.2107  43.7985  1.00269296 34718"}}, "geometry": {"type": "Point", "coordinates": [43.08521618614724, -0.018130024628424345]}}]}